[
  {
    "COMMENT": "GENERATED VIA SPACETRACK.ORG API",
    "ORIGINATOR": "18 SPCS",
    "NORAD_CAT_ID": "25260",
    "OBJECT_NAME": "SPOT 4",
    "OBJECT_TYPE": "PAYLOAD",
    "CLASSIFICATION_TYPE": "U",
    "INTLDES": "98017A",
    "EPOCH": "2023-06-25 05:46:54",
    "EPOCH_MICROSECONDS": "767424",
    "MEAN_MOTION": "14.54213877",
    "ECCENTRICITY": "0.0012584",
    "INCLINATION": "98.2641",
    "RA_OF_ASC_NODE": "269.1201",
    "ARG_OF_PERICENTER": "349.8047",
    "MEAN_ANOMALY": "10.2892",
    "EPHEMERIS_TYPE": "0",
    "ELEMENT_SET_NO": "999",
    "REV_AT_EPOCH": "32132",
    "BSTAR": "0.00015157",
    "MEAN_MOTION_DOT": "0.00000597",
    "MEAN_MOTION_DDOT": "0",
    "FILE": "3942482",
    "TLE_LINE0": "0 SPOT 4",
    "TLE_LINE1": "1 25260U 98017A   23176.24091166  .00000597  00000-0  15157-3 0  9991",
    "TLE_LINE2": "2 25260  98.2641 269.1201 0012584 349.8047  10.2892 14.54213877321328",
    "OBJECT_ID": "1998-017A",
    "OBJECT_NUMBER": "25260",
    "SEMIMAJOR_AXIS": "7090.056",
    "PERIOD": "99.023",
    "APOGEE": "720.843",
    "PERIGEE": "702.999",
    "DECAYED": "0"
  },
  {
    "COMMENT": "GENERATED VIA SPACETRACK.ORG API",
    "ORIGINATOR": "18 SPCS",
    "NORAD_CAT_ID": "25260",
    "OBJECT_NAME": "SPOT 4",
    "OBJECT_TYPE": "PAYLOAD",
    "CLASSIFICATION_TYPE": "U",
    "INTLDES": "98017A",
    "EPOCH": "2023-06-25 12:23:14",
    "EPOCH_MICROSECONDS": "166816",
    "MEAN_MOTION": "14.54214024",
    "ECCENTRICITY": "0.0012568",
    "INCLINATION": "98.2641",
    "RA_OF_ASC_NODE": "269.3919",
    "ARG_OF_PERICENTER": "348.9684",
    "MEAN_ANOMALY": "11.1235",
    "EPHEMERIS_TYPE": "0",
    "ELEMENT_SET_NO": "999",
    "REV_AT_EPOCH": "32136",
    "BSTAR": "0.00014458",
    "MEAN_MOTION_DOT": "0.00000567",
    "MEAN_MOTION_DDOT": "0",
    "FILE": "3942762",
    "TLE_LINE0": "0 SPOT 4",
    "TLE_LINE1": "1 25260U 98017A   23176.51613619  .00000567  00000-0  14458-3 0  9994",
    "TLE_LINE2": "2 25260  98.2641 269.3919 0012568 348.9684  11.1235 14.54214024321365",
    "OBJECT_ID": "1998-017A",
    "OBJECT_NUMBER": "25260",
    "SEMIMAJOR_AXIS": "7090.055",
    "PERIOD": "99.023",
    "APOGEE": "720.831",
    "PERIGEE": "703.010",
    "DECAYED": "0"
  },
  {
    "COMMENT": "GENERATED VIA SPACETRACK.ORG API",
    "ORIGINATOR": "18 SPCS",
    "NORAD_CAT_ID": "25260",
    "OBJECT_NAME": "SPOT 4",
    "OBJECT_TYPE": "PAYLOAD",
    "CLASSIFICATION_TYPE": "U",
    "INTLDES": "98017A",
    "EPOCH": "2023-06-26 03:14:57",
    "EPOCH_MICROSECONDS": "772896",
    "MEAN_MOTION": "14.54214912",
    "ECCENTRICITY": "0.0012527",
    "INCLINATION": "98.2642",
    "RA_OF_ASC_NODE": "270.0035",
    "ARG_OF_PERICENTER": "347.0098",
    "MEAN_ANOMALY": "13.0774",
    "EPHEMERIS_TYPE": "0",
    "ELEMENT_SET_NO": "999",
    "REV_AT_EPOCH": "32145",
    "BSTAR": "0.00014918",
    "MEAN_MOTION_DOT": "0.00000587",
    "MEAN_MOTION_DDOT": "0",
    "FILE": "3943083",
    "TLE_LINE0": "0 SPOT 4",
    "TLE_LINE1": "1 25260U 98017A   23177.13539089  .00000587  00000-0  14918-3 0  9994",
    "TLE_LINE2": "2 25260  98.2642 270.0035 0012527 347.0098  13.0774 14.54214912321453",
    "OBJECT_ID": "1998-017A",
    "OBJECT_NUMBER": "25260",
    "SEMIMAJOR_AXIS": "7090.052",
    "PERIOD": "99.023",
    "APOGEE": "720.799",
    "PERIGEE": "703.036",
    "DECAYED": "0"
  },
  {
    "COMMENT": "GENERATED VIA SPACETRACK.ORG API",
    "ORIGINATOR": "18 SPCS",
    "NORAD_CAT_ID": "25260",
    "OBJECT_NAME": "SPOT 4",
    "OBJECT_TYPE": "PAYLOAD",
    "CLASSIFICATION_TYPE": "U",
    "INTLDES": "98017A",
    "EPOCH": "2023-06-26 06:33:07",
    "EPOCH_MICROSECONDS": "459200",
    "MEAN_MOTION": "14.54215075",
    "ECCENTRICITY": "0.0012518",
    "INCLINATION": "98.2641",
    "RA_OF_ASC_NODE": "270.1394",
    "ARG_OF_PERICENTER": "346.5812",
    "MEAN_ANOMALY": "13.505",
    "EPHEMERIS_TYPE": "0",
    "ELEMENT_SET_NO": "999",
    "REV_AT_EPOCH": "32147",
    "BSTAR": "0.00014808",
    "MEAN_MOTION_DOT": "0.00000582",
    "MEAN_MOTION_DDOT": "0",
    "FILE": "3943365",
    "TLE_LINE0": "0 SPOT 4",
    "TLE_LINE1": "1 25260U 98017A   23177.27300300  .00000582  00000-0  14808-3 0  9994",
    "TLE_LINE2": "2 25260  98.2641 270.1394 0012518 346.5812  13.5050 14.54215075321474",
    "OBJECT_ID": "1998-017A",
    "OBJECT_NUMBER": "25260",
    "SEMIMAJOR_AXIS": "7090.052",
    "PERIOD": "99.022",
    "APOGEE": "720.792",
    "PERIGEE": "703.042",
    "DECAYED": "0"
  },
  {
    "COMMENT": "GENERATED VIA SPACETRACK.ORG API",
    "ORIGINATOR": "18 SPCS",
    "NORAD_CAT_ID": "25260",
    "OBJECT_NAME": "SPOT 4",
    "OBJECT_TYPE": "PAYLOAD",
    "CLASSIFICATION_TYPE": "U",
    "INTLDES": "98017A",
    "EPOCH": "2023-06-26 18:06:41",
    "EPOCH_MICROSECONDS": "354784",
    "MEAN_MOTION": "14.54215522",
    "ECCENTRICITY": "0.0012483",
    "INCLINATION": "98.2642",
    "RA_OF_ASC_NODE": "270.615",
    "ARG_OF_PERICENTER": "345.0855",
    "MEAN_ANOMALY": "14.9972",
    "EPHEMERIS_TYPE": "0",
    "ELEMENT_SET_NO": "999",
    "REV_AT_EPOCH": "32154",
    "BSTAR": "0.00014116",
    "MEAN_MOTION_DOT": "0.00000553",
    "MEAN_MOTION_DDOT": "0",
    "FILE": "3943651",
    "TLE_LINE0": "0 SPOT 4",
    "TLE_LINE1": "1 25260U 98017A   23177.75464531  .00000553  00000-0  14116-3 0  9994",
    "TLE_LINE2": "2 25260  98.2642 270.6150 0012483 345.0855  14.9972 14.54215522321545",
    "OBJECT_ID": "1998-017A",
    "OBJECT_NUMBER": "25260",
    "SEMIMAJOR_AXIS": "7090.050",
    "PERIOD": "99.022",
    "APOGEE": "720.766",
    "PERIGEE": "703.065",
    "DECAYED": "0"
  },
  {
    "COMMENT": "GENERATED VIA SPACETRACK.ORG API",
    "ORIGINATOR": "18 SPCS",
    "NORAD_CAT_ID": "25260",
    "OBJECT_NAME": "SPOT 4",
    "OBJECT_TYPE": "PAYLOAD",
    "CLASSIFICATION_TYPE": "U",
    "INTLDES": "98017A",
    "EPOCH": "2023-06-26 23:03:55",
    "EPOCH_MICROSECONDS": "873440",
    "MEAN_MOTION": "14.5421575",
    "ECCENTRICITY": "0.001247",
    "INCLINATION": "98.2642",
    "RA_OF_ASC_NODE": "270.8189",
    "ARG_OF_PERICENTER": "344.4153",
    "MEAN_ANOMALY": "15.6658",
    "EPHEMERIS_TYPE": "0",
    "ELEMENT_SET_NO": "999",
    "REV_AT_EPOCH": "32157",
    "BSTAR": "0.00014054",
    "MEAN_MOTION_DOT": "0.0000055",
    "MEAN_MOTION_DDOT": "0",
    "FILE": "3943900",
    "TLE_LINE0": "0 SPOT 4",
    "TLE_LINE1": "1 25260U 98017A   23177.96106335  .00000550  00000-0  14054-3 0  9990",
    "TLE_LINE2": "2 25260  98.2642 270.8189 0012470 344.4153  15.6658 14.54215750321574",
    "OBJECT_ID": "1998-017A",
    "OBJECT_NUMBER": "25260",
    "SEMIMAJOR_AXIS": "7090.050",
    "PERIOD": "99.022",
    "APOGEE": "720.756",
    "PERIGEE": "703.073",
    "DECAYED": "0"
  },
  {
    "COMMENT": "GENERATED VIA SPACETRACK.ORG API",
    "ORIGINATOR": "18 SPCS",
    "NORAD_CAT_ID": "25260",
    "OBJECT_NAME": "SPOT 4",
    "OBJECT_TYPE": "PAYLOAD",
    "CLASSIFICATION_TYPE": "U",
    "INTLDES": "98017A",
    "EPOCH": "2023-06-27 05:40:15",
    "EPOCH_MICROSECONDS": "237408",
    "MEAN_MOTION": "14.5421589",
    "ECCENTRICITY": "0.0012453",
    "INCLINATION": "98.2642",
    "RA_OF_ASC_NODE": "271.0907",
    "ARG_OF_PERICENTER": "343.5252",
    "MEAN_ANOMALY": "16.5538",
    "EPHEMERIS_TYPE": "0",
    "ELEMENT_SET_NO": "999",
    "REV_AT_EPOCH": "32161",
    "BSTAR": "0.00013207",
    "MEAN_MOTION_DOT": "0.00000514",
    "MEAN_MOTION_DDOT": "0",
    "FILE": "3944205",
    "TLE_LINE0": "0 SPOT 4",
    "TLE_LINE1": "1 25260U 98017A   23178.23628747  .00000514  00000-0  13207-3 0  9996",
    "TLE_LINE2": "2 25260  98.2642 271.0907 0012453 343.5252  16.5538 14.54215890321613",
    "OBJECT_ID": "1998-017A",
    "OBJECT_NUMBER": "25260",
    "SEMIMAJOR_AXIS": "7090.049",
    "PERIOD": "99.022",
    "APOGEE": "720.743",
    "PERIGEE": "703.085",
    "DECAYED": "0"
  },
  {
    "COMMENT": "GENERATED VIA SPACETRACK.ORG API",
    "ORIGINATOR": "18 SPCS",
    "NORAD_CAT_ID": "25260",
    "OBJECT_NAME": "SPOT 4",
    "OBJECT_TYPE": "PAYLOAD",
    "CLASSIFICATION_TYPE": "U",
    "INTLDES": "98017A",
    "EPOCH": "2023-06-27 20:31:58",
    "EPOCH_MICROSECONDS": "770912",
    "MEAN_MOTION": "14.54216489",
    "ECCENTRICITY": "0.0012413",
    "INCLINATION": "98.2642",
    "RA_OF_ASC_NODE": "271.7023",
    "ARG_OF_PERICENTER": "341.5118",
    "MEAN_ANOMALY": "18.5626",
    "EPHEMERIS_TYPE": "0",
    "ELEMENT_SET_NO": "999",
    "REV_AT_EPOCH": "32170",
    "BSTAR": "0.00012409",
    "MEAN_MOTION_DOT": "0.00000481",
    "MEAN_MOTION_DDOT": "0",
    "FILE": "3944510",
    "TLE_LINE0": "0 SPOT 4",
    "TLE_LINE1": "1 25260U 98017A   23178.85554133  .00000481  00000-0  12409-3 0  9997",
    "TLE_LINE2": "2 25260  98.2642 271.7023 0012413 341.5118  18.5626 14.54216489321709",
    "OBJECT_ID": "1998-017A",
    "OBJECT_NUMBER": "25260",
    "SEMIMAJOR_AXIS": "7090.047",
    "PERIOD": "99.022",
    "APOGEE": "720.713",
    "PERIGEE": "703.111",
    "DECAYED": "0"
  },
  {
    "COMMENT": "GENERATED VIA SPACETRACK.ORG API",
    "ORIGINATOR": "18 SPCS",
    "NORAD_CAT_ID": "25260",
    "OBJECT_NAME": "SPOT 4",
    "OBJECT_TYPE": "PAYLOAD",
    "CLASSIFICATION_TYPE": "U",
    "INTLDES": "98017A",
    "EPOCH": "2023-06-28 04:47:22",
    "EPOCH_MICROSECONDS": "953408",
    "MEAN_MOTION": "14.54216737",
    "ECCENTRICITY": "0.0012392",
    "INCLINATION": "98.2642",
    "RA_OF_ASC_NODE": "272.0421",
    "ARG_OF_PERICENTER": "340.4001",
    "MEAN_ANOMALY": "19.6717",
    "EPHEMERIS_TYPE": "0",
    "ELEMENT_SET_NO": "999",
    "REV_AT_EPOCH": "32175",
    "BSTAR": "0.00011756",
    "MEAN_MOTION_DOT": "0.00000453",
    "MEAN_MOTION_DDOT": "0",
    "FILE": "3944761",
    "TLE_LINE0": "0 SPOT 4",
    "TLE_LINE1": "1 25260U 98017A   23179.19957122  .00000453  00000-0  11756-3 0  9993",
    "TLE_LINE2": "2 25260  98.2642 272.0421 0012392 340.4001  19.6717 14.54216737321754",
    "OBJECT_ID": "1998-017A",
    "OBJECT_NUMBER": "25260",
    "SEMIMAJOR_AXIS": "7090.046",
    "PERIOD": "99.022",
    "APOGEE": "720.697",
    "PERIGEE": "703.125",
    "DECAYED": "0"
  }
]